KUIPER-00089            
1 64834U 25151U   25250.56493989  .00049813  00000+0  13750-2 0  9998
2 64834  51.8806  30.5933 0007149 348.6608  11.4216 15.36564358  8182
KUIPER-00090            
1 64835U 25151V   25250.37823737  .00038216  00000+0  10701-2 0  9994
2 64835  51.8791  31.5845 0006745 353.5198   6.5700 15.36239790  8158
KUIPER-00091            
1 64836U 25151W   25250.68315697  .00048120  00000+0  13236-2 0  9991
2 64836  51.8792  29.8787 0006785 334.2165  25.8482 15.36690157  8204
KUIPER-00092            
1 64837U 25151X   25250.42560681  .00094686  00000+0  25749-2 0  9999
2 64837  51.8782  31.1531 0004712 338.6766  21.4023 15.36743375  9373
KUIPER-00093            
1 64838U 25151Y   25250.91670139  .00029555  00000+0  10550-2 0  9991
2 64838  51.8840  29.1406 0007461 340.9754  30.8160 15.28601474  1781
KUIPER-00094            
1 64839U 25151Z   25250.68510349  .00031814  00000+0  87587-3 0  9998
2 64839  51.8787  29.8891 0006693 339.2053  20.8660 15.36858971  8209
KUIPER-00081            
1 65132U 25171A   25250.78404049  .00042689  00000+0  11919-2 0  9994
2 65132  51.8755 273.1621 0004418 216.6162 143.4523 15.36290824  5448
KUIPER-00088            
1 65133U 25171B   25250.78461877  .00030021  00000+0  84146-3 0  9997
2 65133  51.8769 273.1679 0004029 215.1244 144.9478 15.36342564  5444
